STARLINK-30931          
1 58413U 23180M   26068.92518458  .00000338  00000+0  22263-4 0  9991
2 58413  43.0053  39.9328 0000821 198.3660 161.7162 15.26744160127792
LIZZIESAT-1 (LS-1)      
1 59132U 24043AL  26068.89230471  .00005784  00000+0  22329-3 0  9993
2 59132  97.5461 203.4772 0009923 229.9925 130.0443 15.26635711111780
